ONEWEB-0118             
1 47264U 20100G   26085.30991298  .00000449  00000+0  12136-2 0  9999
2 47264  87.9015   7.1054 0001690  68.5760 291.5549 13.12443338253850
ONEWEB-0119             
1 47265U 20100H   26085.79273866 -.00000172  00000+0 -51234-3 0  9995
2 47265  87.9008   7.0336 0001781  77.7212 282.4116 13.12443576253897
ONEWEB-0120             
1 47266U 20100J   26085.74035683 -.00000234  00000+0 -68697-3 0  9994
2 47266  87.9015   7.0448 0001857  75.1951 284.9383 13.12445083253917
ONEWEB-0121             
1 47267U 20100K   26085.72835623 -.00000447  00000+0 -12786-2 0  9998
2 47267  87.9016   7.0249 0001855  84.0285 276.1055 13.12443818253828
ONEWEB-0122             
1 47268U 20100L   26085.72242900 -.00000275  00000+0 -79889-3 0  9996
2 47268  87.9034   7.0294 0001981  78.1374 281.9976 13.12442213253736
ONEWEB-0123             
1 47269U 20100M   26085.71819213 -.00000246  00000+0 -71914-3 0  9992
2 47269  87.9012   7.0472 0001679  75.7674 284.3641 13.12442991253875
ONEWEB-0124             
1 47270U 20100N   26085.70803270  .00000044  00000+0  86597-4 0  9997
2 47270  87.9005   7.0537 0001709  81.8397 278.2925 13.12443070253758
ONEWEB-0125             
1 47271U 20100P   26085.76224874  .00000409  00000+0  11023-2 0  9996
2 47271  87.9021   7.0166 0001494  81.4678 278.6619 13.12442567253826
ONEWEB-0126             
1 47272U 20100Q   26085.32529214  .00000097  00000+0  23429-3 0  9992
2 47272  87.9009   7.1245 0001876  74.6401 285.4935 13.12442977253837
ONEWEB-0127             
1 47273U 20100R   26085.74870429  .00000024  00000+0  32699-4 0  9996
2 47273  87.9007   7.0433 0001931  75.2417 284.8926 13.12444525253913
ONEWEB-0128             
1 47274U 20100S   26085.31329506  .00000414  00000+0  11147-2 0  9991
2 47274  87.9004   7.1438 0002039  87.0174 273.1188 13.12444014253877
ONEWEB-0129             
1 47275U 20100T   26085.75039372  .00000118  00000+0  29190-3 0  9998
2 47275  87.9014   7.0221 0002673  58.1398 301.9991 13.12445279253864
ONEWEB-0130             
1 47276U 20100U   26085.70125992  .00000274  00000+0  72672-3 0  9994
2 47276  87.9016   7.0264 0001933  77.9194 282.2151 13.12443322253827
