[
    {
      "OBJECT_NAME": "ONEWEB-0118",
      "OBJECT_ID": "2020-100G",
      "EPOCH": "2026-03-26T07:26:16.481472",
      "MEAN_MOTION": 13.12443338,
      "ECCENTRICITY": 0.00016898,
      "INCLINATION": 87.9015,
      "RA_OF_ASC_NODE": 7.1054,
      "ARG_OF_PERICENTER": 68.576,
      "MEAN_ANOMALY": 291.5549,
      "EPHEMERIS_TYPE": 0,
      "CLASSIFICATION_TYPE": "U",
      "NORAD_CAT_ID": 47264,
      "ELEMENT_SET_NO": 999,
      "REV_AT_EPOCH": 25385,
      "BSTAR": 0.0012136476,
      "MEAN_MOTION_DOT": 0.00000449,
      "MEAN_MOTION_DDOT": 0
    },
    {
      "OBJECT_NAME": "ONEWEB-0119",
      "OBJECT_ID": "2020-100H",
      "EPOCH": "2026-03-26T19:01:32.621088",
      "MEAN_MOTION": 13.12443577,
      "ECCENTRICITY": 0.00017813,
      "INCLINATION": 87.9008,
      "RA_OF_ASC_NODE": 7.0336,
      "ARG_OF_PERICENTER": 77.7212,
      "MEAN_ANOMALY": 282.4116,
      "EPHEMERIS_TYPE": 0,
      "CLASSIFICATION_TYPE": "U",
      "NORAD_CAT_ID": 47265,
      "ELEMENT_SET_NO": 999,
      "REV_AT_EPOCH": 25389,
      "BSTAR": -0.00051233843,
      "MEAN_MOTION_DOT": -0.00000172,
      "MEAN_MOTION_DDOT": 0
    },
    {
      "OBJECT_NAME": "ONEWEB-0120",
      "OBJECT_ID": "2020-100J",
      "EPOCH": "2026-03-26T17:46:06.830112",
      "MEAN_MOTION": 13.12445083,
      "ECCENTRICITY": 0.00018575,
      "INCLINATION": 87.9015,
      "RA_OF_ASC_NODE": 7.0448,
      "ARG_OF_PERICENTER": 75.1951,
      "MEAN_ANOMALY": 284.9383,
      "EPHEMERIS_TYPE": 0,
      "CLASSIFICATION_TYPE": "U",
      "NORAD_CAT_ID": 47266,
      "ELEMENT_SET_NO": 999,
      "REV_AT_EPOCH": 25391,
      "BSTAR": -0.00068696576,
      "MEAN_MOTION_DOT": -0.00000234,
      "MEAN_MOTION_DDOT": 0
    },
    {
      "OBJECT_NAME": "ONEWEB-0121",
      "OBJECT_ID": "2020-100K",
      "EPOCH": "2026-03-26T17:28:49.978272",
      "MEAN_MOTION": 13.12443818,
      "ECCENTRICITY": 0.00018546,
      "INCLINATION": 87.9016,
      "RA_OF_ASC_NODE": 7.0249,
      "ARG_OF_PERICENTER": 84.0285,
      "MEAN_ANOMALY": 276.1055,
      "EPHEMERIS_TYPE": 0,
      "CLASSIFICATION_TYPE": "U",
      "NORAD_CAT_ID": 47267,
      "ELEMENT_SET_NO": 999,
      "REV_AT_EPOCH": 25382,
      "BSTAR": -0.0012786309,
      "MEAN_MOTION_DOT": -0.00000447,
      "MEAN_MOTION_DDOT": 0
    },
    {
      "OBJECT_NAME": "ONEWEB-0122",
      "OBJECT_ID": "2020-100L",
      "EPOCH": "2026-03-26T17:20:17.865600",
      "MEAN_MOTION": 13.12442213,
      "ECCENTRICITY": 0.00019805,
      "INCLINATION": 87.9034,
      "RA_OF_ASC_NODE": 7.0294,
      "ARG_OF_PERICENTER": 78.1374,
      "MEAN_ANOMALY": 281.9976,
      "EPHEMERIS_TYPE": 0,
      "CLASSIFICATION_TYPE": "U",
      "NORAD_CAT_ID": 47268,
      "ELEMENT_SET_NO": 999,
      "REV_AT_EPOCH": 25373,
      "BSTAR": -0.00079889227,
      "MEAN_MOTION_DOT": -0.00000275,
      "MEAN_MOTION_DDOT": 0
    },
    {
      "OBJECT_NAME": "ONEWEB-0123",
      "OBJECT_ID": "2020-100M",
      "EPOCH": "2026-03-26T17:14:11.800032",
      "MEAN_MOTION": 13.12442991,
      "ECCENTRICITY": 0.0001679,
      "INCLINATION": 87.9012,
      "RA_OF_ASC_NODE": 7.0472,
      "ARG_OF_PERICENTER": 75.7674,
      "MEAN_ANOMALY": 284.3641,
      "EPHEMERIS_TYPE": 0,
      "CLASSIFICATION_TYPE": "U",
      "NORAD_CAT_ID": 47269,
      "ELEMENT_SET_NO": 999,
      "REV_AT_EPOCH": 25387,
      "BSTAR": -0.00071914383,
      "MEAN_MOTION_DOT": -0.00000246,
      "MEAN_MOTION_DDOT": 0
    },
    {
      "OBJECT_NAME": "ONEWEB-0124",
      "OBJECT_ID": "2020-100N",
      "EPOCH": "2026-03-26T16:59:34.025280",
      "MEAN_MOTION": 13.1244307,
      "ECCENTRICITY": 0.00017092,
      "INCLINATION": 87.9005,
      "RA_OF_ASC_NODE": 7.0537,
      "ARG_OF_PERICENTER": 81.8397,
      "MEAN_ANOMALY": 278.2925,
      "EPHEMERIS_TYPE": 0,
      "CLASSIFICATION_TYPE": "U",
      "NORAD_CAT_ID": 47270,
      "ELEMENT_SET_NO": 999,
      "REV_AT_EPOCH": 25375,
      "BSTAR": 0.000086597127,
      "MEAN_MOTION_DOT": 4.4e-7,
      "MEAN_MOTION_DDOT": 0
    },
    {
      "OBJECT_NAME": "ONEWEB-0125",
      "OBJECT_ID": "2020-100P",
      "EPOCH": "2026-03-26T18:17:38.292000",
      "MEAN_MOTION": 13.12442567,
      "ECCENTRICITY": 0.0001494,
      "INCLINATION": 87.9021,
      "RA_OF_ASC_NODE": 7.0166,
      "ARG_OF_PERICENTER": 81.4678,
      "MEAN_ANOMALY": 278.6619,
      "EPHEMERIS_TYPE": 0,
      "CLASSIFICATION_TYPE": "U",
      "NORAD_CAT_ID": 47271,
      "ELEMENT_SET_NO": 999,
      "REV_AT_EPOCH": 25382,
      "BSTAR": 0.0011023452,
      "MEAN_MOTION_DOT": 0.00000409,
      "MEAN_MOTION_DDOT": 0
    },
    {
      "OBJECT_NAME": "ONEWEB-0126",
      "OBJECT_ID": "2020-100Q",
      "EPOCH": "2026-03-26T07:48:25.240896",
      "MEAN_MOTION": 13.12442977,
      "ECCENTRICITY": 0.00018764,
      "INCLINATION": 87.9009,
      "RA_OF_ASC_NODE": 7.1245,
      "ARG_OF_PERICENTER": 74.6401,
      "MEAN_ANOMALY": 285.4935,
      "EPHEMERIS_TYPE": 0,
      "CLASSIFICATION_TYPE": "U",
      "NORAD_CAT_ID": 47272,
      "ELEMENT_SET_NO": 999,
      "REV_AT_EPOCH": 25383,
      "BSTAR": 0.00023429379,
      "MEAN_MOTION_DOT": 9.7e-7,
      "MEAN_MOTION_DDOT": 0
    },
    {
      "OBJECT_NAME": "ONEWEB-0127",
      "OBJECT_ID": "2020-100R",
      "EPOCH": "2026-03-26T17:58:08.051520",
      "MEAN_MOTION": 13.12444525,
      "ECCENTRICITY": 0.00019307,
      "INCLINATION": 87.9007,
      "RA_OF_ASC_NODE": 7.0433,
      "ARG_OF_PERICENTER": 75.2417,
      "MEAN_ANOMALY": 284.8926,
      "EPHEMERIS_TYPE": 0,
      "CLASSIFICATION_TYPE": "U",
      "NORAD_CAT_ID": 47273,
      "ELEMENT_SET_NO": 999,
      "REV_AT_EPOCH": 25391,
      "BSTAR": 0.000032699254,
      "MEAN_MOTION_DOT": 2.4e-7,
      "MEAN_MOTION_DDOT": 0
    },
    {
      "OBJECT_NAME": "ONEWEB-0128",
      "OBJECT_ID": "2020-100S",
      "EPOCH": "2026-03-26T07:31:08.693184",
      "MEAN_MOTION": 13.12444014,
      "ECCENTRICITY": 0.00020389,
      "INCLINATION": 87.9004,
      "RA_OF_ASC_NODE": 7.1438,
      "ARG_OF_PERICENTER": 87.0174,
      "MEAN_ANOMALY": 273.1188,
      "EPHEMERIS_TYPE": 0,
      "CLASSIFICATION_TYPE": "U",
      "NORAD_CAT_ID": 47274,
      "ELEMENT_SET_NO": 999,
      "REV_AT_EPOCH": 25387,
      "BSTAR": 0.0011147296,
      "MEAN_MOTION_DOT": 0.00000414,
      "MEAN_MOTION_DDOT": 0
    },
    {
      "OBJECT_NAME": "ONEWEB-0129",
      "OBJECT_ID": "2020-100T",
      "EPOCH": "2026-03-26T18:00:34.018272",
      "MEAN_MOTION": 13.12445279,
      "ECCENTRICITY": 0.00026732,
      "INCLINATION": 87.9014,
      "RA_OF_ASC_NODE": 7.0221,
      "ARG_OF_PERICENTER": 58.1398,
      "MEAN_ANOMALY": 301.9991,
      "EPHEMERIS_TYPE": 0,
      "CLASSIFICATION_TYPE": "U",
      "NORAD_CAT_ID": 47275,
      "ELEMENT_SET_NO": 999,
      "REV_AT_EPOCH": 25386,
      "BSTAR": 0.00029190371,
      "MEAN_MOTION_DOT": 0.00000118,
      "MEAN_MOTION_DDOT": 0
    },
    {
      "OBJECT_NAME": "ONEWEB-0130",
      "OBJECT_ID": "2020-100U",
      "EPOCH": "2026-03-26T16:49:48.857952",
      "MEAN_MOTION": 13.12443322,
      "ECCENTRICITY": 0.00019333,
      "INCLINATION": 87.9016,
      "RA_OF_ASC_NODE": 7.0264,
      "ARG_OF_PERICENTER": 77.9194,
      "MEAN_ANOMALY": 282.2151,
      "EPHEMERIS_TYPE": 0,
      "CLASSIFICATION_TYPE": "U",
      "NORAD_CAT_ID": 47276,
      "ELEMENT_SET_NO": 999,
      "REV_AT_EPOCH": 25382,
      "BSTAR": 0.0007267154,
      "MEAN_MOTION_DOT": 0.00000274,
      "MEAN_MOTION_DDOT": 0
    }
  ]
